satname,norad_id,inclination_deg,eccentricity,mean_motion_rev_per_day,perigee_km,apogee_km,l1,l2
STARLINK-1402,45685,53.0453,0.0003624,15.4849293,418.6700300298962,423.5981417129351,1 45685U 20035AE  26091.78836673  .00098230  00000+0  18025-2 0  9993,2 45685  53.0453 273.1060 0003624 289.8504  70.2112 15.48492930322926
STARLINK-1404,45686,53.1603,0.0001248,15.37239872,453.422854071805,455.1282242415782,1 45686U 20035AF  26091.84820965  .00015401  00000+0  42577-3 0  9997,2 45686  53.1603 301.7599 0001248  98.8769 261.2376 15.37239872322523
STARLINK-1413,45689,53.1602,0.0001293,15.30190677,474.35676433628487,476.1290483800685,1 45689U 20035AJ  26090.97452260 -.00002209  00000+0 -62481-4 0  9993,2 45689  53.1602 306.0706 0001293  78.6002 281.5144 15.30190677322305
STARLINK-1417,45693,53.0508,0.0001844,15.1353906,524.1444006853817,526.6904315540469,1 45693U 20035AN  26091.05511151  .00017449  00000+0  97661-3 0  9990,2 45693  53.0508 312.8488 0001844 305.8955  54.1866 15.13539060322286
STARLINK-1420,45695,53.0497,0.0004078,15.58027352,390.6053239699795,396.1281624229314,1 45695U 20035AQ  26090.90442921  .00125616  00000+0  16250-2 0  9993,2 45695  53.0497 274.8919 0004078 223.6914 136.3775 15.58027352322811
STARLINK-1422,45696,53.1597,0.0001333,15.30184691,474.3472217909166,476.1743376389886,1 45696U 20035AR  26090.98189474 -.00001765  00000+0 -47491-4 0  9996,2 45696  53.1597 306.0390 0001333  85.6268 274.4885 15.30184691322382
STARLINK-1351,45697,53.0486,0.000427,15.56798231,394.0374722161414,399.8233797979501,1 45697U 20035AS  26091.86383432  .00136853  00000+0  18503-2 0  9990,2 45697  53.0486 269.6684 0004270 246.8388 113.2173 15.56798231322970
STARLINK-1400,45700,53.0475,0.0006321,15.5477414,398.5230198651461,407.0954921219727,1 45700U 20035AV  26091.86237773  .00117352  00000+0  17141-2 0  9991,2 45700  53.0475 271.3376 0006321 190.1820 169.9063 15.54774140322946
STARLINK-1403,45701,53.1572,0.0001265,15.29348407,476.89168159175733,478.6262232677218,1 45701U 20035AW  26090.94926906 -.00003479  00000+0 -10832-3 0  9990,2 45701  53.1572 293.2476 0001265  81.2983 278.8161 15.29348407322553
STARLINK-1407,45703,53.0317,0.0004393,15.64904318,370.54795322485097,376.47995375258597,1 45703U 20035AY  26091.59669458  .00062465  00000+0  62721-3 0  9992,2 45703  53.0317 203.7151 0004393 201.2036 158.8797 15.64904318323871
STARLINK-1411,45706,53.0404,0.0003475,15.67301075,364.2851932527674,368.97280562237665,1 45706U 20035BB  26091.83335647  .00164850  00000+0  14770-2 0  9993,2 45706  53.0404 227.9161 0003475 287.4946 160.7240 15.67301075  5883
STARLINK-1423,45710,53.0474,0.0006424,15.57196395,391.42392449254294,400.1270472543929,1 45710U 20035BF  26091.79374593  .00134027  00000+0  17854-2 0  9995,2 45710  53.0474 270.3112 0006424 213.8954 146.1648 15.57196395322947
STARLINK-1433,45711,53.0469,0.0006171,15.59441889,385.0950969860842,393.44743226628543,1 45711U 20035BG  26091.85213713  .00131184  00000+0  16067-2 0  9995,2 45711  53.0469 268.7254 0006171 207.9733 152.0948 15.59441889322973
STARLINK-1434,45712,53.0525,0.0003589,15.28838712,476.8215177305565,481.74377355219804,1 45712U 20035BH  26091.79167336  .00050829  00000+0  17895-2 0  9994,2 45712  53.0525 272.8593 0003589 181.3994 178.6995 15.28838712322925
STARLINK-1465,45731,53.0488,0.0006167,15.53506745,402.3127302811372,410.68089762726777,1 45731U 20038B   26091.76597088  .00104822  00000+0  16068-2 0  9990,2 45731  53.0488 112.1332 0006167  15.9871 344.1332 15.53506745319963
STARLINK-1471,45735,53.0477,0.0001715,15.50201847,414.97101311886854,417.30144883709454,1 45735U 20038F   26091.54358402  .00030981  00000+0  54544-3 0  9991,2 45735  53.0477  32.4288 0001715  35.9337 324.1786 15.50201847321070
STARLINK-1480,45741,53.0515,0.0002301,15.55461111,399.2527314464196,402.37240403749547,1 45741U 20038M   26091.40996250  .00083822  00000+0  12016-2 0  9991,2 45741  53.0515 108.0408 0002301  78.9619 281.1651 15.55461111320008
STARLINK-1500,45744,53.0354,0.0003146,15.36018723,455.74566394229805,460.04689608208173,1 45744U 20038Q   26091.26465179  .00027415  00000+0  77832-3 0  9993,2 45744  53.0354  86.7546 0003146  13.1545 346.9538 15.36018723320284
STARLINK-1504,45746,53.0235,0.0001048,15.54751936,402.16316674381505,403.5844666109897,1 45746U 20038S   26091.13302207  .00042740  00000+0  63559-3 0  9992,2 45746  53.0235  33.7849 0001048  68.4682 291.6440 15.54751936321005
STARLINK-1506,45747,53.0738,0.0002979,15.26679067,483.70338874140725,487.7928915078937,1 45747U 20038T   26091.70708049  .00002624  00000+0  11166-3 0  9994,2 45747  53.0738  95.8533 0002979 352.4863   7.6090 15.26679067320204
STARLINK-1464,45751,53.0504,0.0004081,15.46475645,424.26843445425584,429.8228245164428,1 45751U 20038X   26091.72323145  .00084554  00000+0  16679-2 0  9996,2 45751  53.0504  94.9039 0004081  22.2661 337.8522 15.46475645320212
STARLINK-1477,45754,53.0489,0.000319,15.15459978,517.3820869037299,521.7828319188338,1 45754U 20038AA  26091.85434023  .00026636  00000+0  14023-2 0  9999,2 45754  53.0489 107.5704 0003190  47.1825 312.9436 15.15459978320041
STARLINK-1478,45755,53.0475,0.000404,15.59135585,387.42318368821725,392.8919657045726,1 45755U 20038AB  26091.83335647  .00144501  00000+0  17877-2 0  9992,2 45755  53.0475  85.6339 0004040  18.5696 150.7160 15.59135585  5944
STARLINK-1493,45759,53.05,0.0004956,15.54082186,401.4602799182858,408.1835487941962,1 45759U 20038AF  26091.82346780  .00106987  00000+0  16058-2 0  9991,2 45759  53.0500  93.1391 0004956  75.3093 284.8465 15.54082186320239
STARLINK-1494,45760,53.0483,0.0006172,15.79143426,328.72433824217933,337.0084008015174,1 45760U 20038AG  26091.83335647  .00080986  00000+0  44311-3 0  9998,2 45760  53.0483  36.1305 0006172  95.6361 277.6903 15.79143426  5923
STARLINK-1502,45764,53.0495,0.0006183,15.50651789,410.6217824815194,419.0219554188625,1 45764U 20038AL  26091.72195989  .00092022  00000+0  15661-2 0  9992,2 45764  53.0495  95.7093 0006183  65.8969 294.2685 15.50651789320208
STARLINK-1470,45772,53.0445,0.0003197,15.29877144,473.9879038666386,478.3705536633106,1 45772U 20038AU  26091.22630840  .00050317  00000+0  17162-2 0  9995,2 45772  53.0445  69.5640 0003197  75.1623 284.9730 15.29877144320525
STARLINK-1482,45773,53.1581,0.000243,15.31808674,468.7518644447182,472.08026123325817,1 45773U 20038AV  26091.20455411  .00048584  00000+0  15618-2 0  9990,2 45773  53.1581  86.3306 0002430  83.1189 277.0089 15.31808674320298
STARLINK-1496,45780,53.0497,0.0001004,15.52081446,409.9682030033973,411.3313913922748,1 45780U 20038BC  26091.83335647  .00147030  00000+0  23582-2 0  9990,2 45780  53.0497  66.7509 0001004 357.7641 253.4885 15.52081446  5955
STARLINK-1513,45786,53.1612,0.0001382,15.3018831,474.30283579460956,476.1971119541895,1 45786U 20038BJ  26091.68130766 -.00000138  00000+0  74803-5 0  9997,2 45786  53.1612  84.3598 0001382 104.0761 256.0393 15.30188310320362
STARLINK-1522,46027,53.0656,0.0002554,15.10166529,533.9258969542607,537.4574806484998,1 46027U 20055A   26091.52321266  .00033427  00000+0  20330-2 0  9994,2 46027  53.0656  23.4954 0002554 114.3607 245.7651 15.10166529312339
STARLINK-1523,46028,53.1599,0.000159,15.30186537,474.16557843474857,476.3449571759111,1 46028U 20055B   26091.51307256  .00001720  00000+0  70207-4 0  9998,2 46028  53.1599  20.6914 0001590  93.5439 266.5744 15.30186537312395
STARLINK-1526,46029,53.1555,0.0001273,15.29347406,476.8891880756619,478.6346999468069,1 46029U 20055C   26091.50412564  .00011472  00000+0  40936-3 0  9997,2 46029  53.1555  20.7167 0001273  83.7377 276.3768 15.29347406312385
STARLINK-1555,46032,53.1604,0.000166,15.30181804,474.1317344714662,476.40706539624534,1 46032U 20055F   26091.09905642 -.00005739  00000+0 -18186-3 0  9992,2 46032  53.1604  22.6141 0001660 109.2415 250.8766 15.30181804312323
STARLINK-1556,46033,53.1597,7.11e-05,15.29353251,477.25702255890155,478.23192890475093,1 46033U 20055G   26091.53255338  .00008503  00000+0  30666-3 0  9999,2 46033  53.1597  20.5422 0000711  92.9530 267.1552 15.29353251312369
STARLINK-1557,46034,53.158,0.0001464,15.29344501,476.7669210156637,478.77433076852503,1 46034U 20055H   26091.52631611  .00011790  00000+0  42040-3 0  9992,2 46034  53.1580  20.4711 0001464  74.1733 285.9429 15.29344501312364
STARLINK-1558,46035,53.1613,0.0001273,15.30182437,474.39507147903987,476.1399482672532,1 46035U 20055J   26091.22337288 -.00001222  00000+0 -29155-4 0  9997,2 46035  53.1613  22.0420 0001273  80.8219 279.2925 15.30182437312343
STARLINK-1560,46036,53.1587,0.0001411,15.2934568,476.79973426140987,478.7344703990884,1 46036U 20055K   26091.52308465  .00012449  00000+0  44315-3 0  9991,2 46036  53.1587  20.5260 0001411  99.3918 260.7242 15.29345680312395
STARLINK-1567,46038,53.0921,0.0001005,15.62465038,379.8598812891423,381.21837519091787,1 46038U 20055M   26091.88236324  .00478711  00000+0  49874-2 0  9998,2 46038  53.0921  16.8067 0001005 138.1240 221.9851 15.62465038312460
STARLINK-1569,46039,53.1597,0.000134,15.30181044,474.3533124411042,476.1900259644508,1 46039U 20055N   26091.22652258  .00004311  00000+0  15767-3 0  9991,2 46039  53.1597  22.0239 0001340 112.5211 247.5932 15.30181044312334
STARLINK-1582,46043,53.1602,0.0001103,15.3018627,474.50013577593654,476.0119942860829,1 46043U 20055S   26091.49410817  .00010805  00000+0  37657-3 0  9995,2 46043  53.1602  20.7713 0001103  89.0840 271.0287 15.30186270312376
STARLINK-1591,46045,53.163,0.0001377,15.30180165,474.3305790586255,476.2180085289365,1 46045U 20055U   26091.52043949  .00012170  00000+0  42261-3 0  9993,2 46045  53.1630  20.6583 0001377 103.9627 256.1527 15.30180165312362
STARLINK-1524,46047,53.1617,0.0001203,15.30180191,474.44975079148753,476.09868153009575,1 46047U 20055W   26091.18803441 -.00001814  00000+0 -49161-4 0  9990,2 46047  53.1617   9.3374 0001203  90.3612 269.7527 15.30180191312518
